[Satellite]
VERSION=1.1
NAME=CICERO 10
NICKNAME=CICERO 10
TLE1=1 43690U 18088A   19317.84268766  .00001025  00000-0  45780-4 0  9991
TLE2=2 43690  85.0415 220.9676 0016317  31.9893 328.2334 15.19873455 55834
STATUS=0
